*******************************************************************************
JPL/HORIZONS                1360 Tarka (1935 OD)           2023-Sep-04 11:11:42
Rec #:    1360 (+COV) Soln.date: 2023-Aug-22_00:04:44   # obs: 3527 (1935-2023)
 
IAU76/J2000 helio. ecliptic osc. elements (au, days, deg., period=Julian yrs):
 
  EPOCH=  2457629.5 ! 2016-Aug-29.00 (TDB)         Residual RMS= .25265
   EC= .2134959152827293   QR= 2.072218090282243   TP= 2457543.8697015294
   OM= 331.4274960029598   W=  287.9524451119955   IN= 22.8267339683139
   A= 2.634720061278709    MA= 19.73466753303454   ADIST= 3.197222032275176
   PER= 4.27671            N= .230463608           ANGMOM= .027278365
   DAN= 2.35937            DDN= 2.69176            L= 260.7957873
   B= -21.6575114          MOID= 1.16812003        TP= 2016-Jun-04.3697015294
 
Asteroid physical parameters (km, seconds, rotational period in hours):
   GM= n.a.                RAD= 16.658             ROTPER= 8.87
   H= 11.52                G= .150                 B-V= n.a.
                           ALBEDO= .030            STYP= Ch

ASTEROID comments: 
1: soln ref.= JPL#55, OCC=0
2: source=ORB
*******************************************************************************


*******************************************************************************
Ephemeris / API_USER Mon Sep  4 11:11:42 2023 Pasadena, USA      / Horizons
*******************************************************************************
Target body name: 1360 Tarka (1935 OD)            {source: JPL#55}
Center body name: Solar System Barycenter (0)     {source: DE441}
Center-site name: BODY CENTER
*******************************************************************************
Start time      : A.D. 2023-Aug-12 00:00:00.0000 TDB
Stop  time      : A.D. 2023-Aug-13 00:00:00.0000 TDB
Step-size       : 2880 minutes
*******************************************************************************
Center geodetic : 0.0, 0.0, 0.0                   {E-lon(deg),Lat(deg),Alt(km)}
Center cylindric: 0.0, 0.0, 0.0                   {E-lon(deg),Dxy(km),Dz(km)}
Center radii    : (undefined)
Small perturbers: Yes                             {source: SB441-N16}
Output units    : KM-S
Calendar mode   : Mixed Julian/Gregorian
Output type     : GEOMETRIC cartesian states
Output format   : 2 (position and velocity)
Reference frame : Ecliptic of J2000.0
*******************************************************************************
Initial IAU76/J2000 heliocentric ecliptic osculating elements (au, days, deg.):
  EPOCH=  2457629.5 ! 2016-Aug-29.00 (TDB)         Residual RMS= .25265        
   EC= .2134959152827293   QR= 2.072218090282243   TP= 2457543.8697015294      
   OM= 331.4274960029598   W=  287.9524451119955   IN= 22.8267339683139        
  Equivalent ICRF heliocentric cartesian coordinates (au, au/d):
   X= 7.802163561627830E-01  Y=-1.525796911330594E+00  Z=-1.255549436711731E+00
  VX= 1.213658202468707E-02 VY= 1.092692218272512E-03 VZ= 4.216313191285236E-03
Asteroid physical parameters (km, seconds, rotational period in hours):        
   GM= n.a.                RAD= 16.658             ROTPER= 8.87                
   H= 11.52                G= .150                 B-V= n.a.                   
                           ALBEDO= .030            STYP= Ch                    
*******************************************************************************
JDTDB
   X     Y     Z
   VX    VY    VZ
*******************************************************************************
$$SOE
2460168.500000000 = A.D. 2023-Aug-12 00:00:00.0000 TDB 
 X =-2.604303540019439E+08 Y = 3.497913203669481E+08 Z = 7.718701122549649E+07
 VX=-1.090315181057441E+01 VY=-1.039382399081056E+01 VZ=-6.036307653848856E+00
$$EOE
*******************************************************************************
 
TIME

  Barycentric Dynamical Time ("TDB" or T_eph) output was requested. This
continuous coordinate time is equivalent to the relativistic proper time
of a clock at rest in a reference frame co-moving with the solar system
barycenter but outside the system's gravity well. It is the independent
variable in the solar system relativistic equations of motion.

  TDB runs at a uniform rate of one SI second per second and is independent
of irregularities in Earth's rotation.
 
CALENDAR SYSTEM

  Mixed calendar mode was active such that calendar dates after AD 1582-Oct-15
(if any) are in the modern Gregorian system. Dates prior to 1582-Oct-5 (if any)
are in the Julian calendar system, which is automatically extended for dates
prior to its adoption on 45-Jan-1 BC.  The Julian calendar is useful for
matching historical dates. The Gregorian calendar more accurately corresponds
to the Earth's orbital motion and seasons. A "Gregorian-only" calendar mode is
available if such physical events are the primary interest.

REFERENCE FRAME AND COORDINATES

  Ecliptic at the standard reference epoch

    Reference epoch: J2000.0
    X-Y plane: adopted Earth orbital plane at the reference epoch
               Note: IAU76 obliquity of 84381.448 arcseconds wrt ICRF X-Y plane
    X-axis   : ICRF
    Z-axis   : perpendicular to the X-Y plane in the directional (+ or -) sense
               of Earth's north pole at the reference epoch.

  Symbol meaning:

    JDTDB    Julian Day Number, Barycentric Dynamical Time
      X      X-component of position vector (km)
      Y      Y-component of position vector (km)
      Z      Z-component of position vector (km)
      VX     X-component of velocity vector (km/sec)                           
      VY     Y-component of velocity vector (km/sec)                           
      VZ     Z-component of velocity vector (km/sec)                           

ABERRATIONS AND CORRECTIONS

 Geometric state vectors have NO corrections or aberrations applied.

Computations by ...

    Solar System Dynamics Group, Horizons On-Line Ephemeris System
    4800 Oak Grove Drive, Jet Propulsion Laboratory
    Pasadena, CA  91109   USA

    General site: https://ssd.jpl.nasa.gov/
    Mailing list: https://ssd.jpl.nasa.gov/email_list.html
    System news : https://ssd.jpl.nasa.gov/horizons/news.html
    User Guide  : https://ssd.jpl.nasa.gov/horizons/manual.html
    Connect     : browser        https://ssd.jpl.nasa.gov/horizons/app.html#/x
                  API            https://ssd-api.jpl.nasa.gov/doc/horizons.html
                  command-line   telnet ssd.jpl.nasa.gov 6775
                  e-mail/batch   https://ssd.jpl.nasa.gov/ftp/ssd/hrzn_batch.txt
                  scripts        https://ssd.jpl.nasa.gov/ftp/ssd/SCRIPTS
    Author      : Jon.D.Giorgini@jpl.nasa.gov
*******************************************************************************
